{
  "type": "FeatureCollection",
  "features": [
    {
      "type": "Feature",
      "properties": {
        "norad_id": 34141,
        "name": "COSMOS 2251 DEB",
        "group": "cosmos-2251-debris",
        "lat": 55.00472542422166,
        "lon": -156.82934481827635,
        "alt_km": 689.8769842500997,
        "timestamp": "2025-12-02T21:34:01.664534+00:00",
        "meta_object_name": "COSMOS 2251 DEB",
        "meta_object_id": "1993-036LN",
        "meta_epoch": "2025-12-02T06:21:24.664320",
        "meta_mean_motion": 14.49035619,
        "meta_eccentricity": 0.0048556,
        "meta_inclination": 74.0117,
        "meta_ra_of_asc_node": 48.5361,
        "meta_arg_of_pericenter": 138.0627,
        "meta_mean_anomaly": 278.8713,
        "meta_ephemeris_type": 0,
        "meta_classification_type": "U",
        "meta_norad_cat_id": 34141,
        "meta_element_set_no": 999,
        "meta_rev_at_epoch": 87542,
        "meta_bstar": 0.0021318,
        "meta_mean_motion_dot": 8.195e-05,
        "meta_mean_motion_ddot": 0,
        "tle_line1": "1 34141U 93036LN  25336.26486880  .00008195  00000+0  21318-2 0  9994",
        "tle_line2": "2 34141  74.0117  48.5361 0048556 138.0627 278.8713 14.49035619875421"
      },
      "geometry": {
        "type": "Point",
        "coordinates": [
          -156.82934481827635,
          55.00472542422166
        ]
      }
    },
    {
      "type": "Feature",
      "properties": {
        "norad_id": 34270,
        "name": "COSMOS 2251 DEB",
        "group": "cosmos-2251-debris",
        "lat": -50.828477856487716,
        "lon": 166.19566205466938,
        "alt_km": 696.0075120654856,
        "timestamp": "2025-12-02T21:34:01.664544+00:00",
        "meta_object_name": "COSMOS 2251 DEB",
        "meta_object_id": "1993-036LQ",
        "meta_epoch": "2025-12-02T09:02:11.765184",
        "meta_mean_motion": 14.65074819,
        "meta_eccentricity": 0.0047837,
        "meta_inclination": 74.0111,
        "meta_ra_of_asc_node": 326.5965,
        "meta_arg_of_pericenter": 122.6214,
        "meta_mean_anomaly": 237.9585,
        "meta_ephemeris_type": 0,
        "meta_classification_type": "U",
        "meta_norad_cat_id": 34270,
        "meta_element_set_no": 999,
        "meta_rev_at_epoch": 88944,
        "meta_bstar": 0.00068283,
        "meta_mean_motion_dot": 3.697e-05,
        "meta_mean_motion_ddot": 0,
        "tle_line1": "1 34270U 93036LQ  25336.37652506  .00003697  00000+0  68283-3 0  9994",
        "tle_line2": "2 34270  74.0111 326.5965 0047837 122.6214 237.9585 14.65074819889442"
      },
      "geometry": {
        "type": "Point",
        "coordinates": [
          166.19566205466938,
          -50.828477856487716
        ]
      }
    },
    {
      "type": "Feature",
      "properties": {
        "norad_id": 34271,
        "name": "COSMOS 2251 DEB",
        "group": "cosmos-2251-debris",
        "lat": -13.991664203267872,
        "lon": -145.65096893413713,
        "alt_km": 659.7219468176918,
        "timestamp": "2025-12-02T21:34:01.664555+00:00",
        "meta_object_name": "COSMOS 2251 DEB",
        "meta_object_id": "1993-036LR",
        "meta_epoch": "2025-12-02T02:43:20.334720",
        "meta_mean_motion": 14.7037433,
        "meta_eccentricity": 0.0019819,
        "meta_inclination": 74.0211,
        "meta_ra_of_asc_node": 219.9673,
        "meta_arg_of_pericenter": 275.3903,
        "meta_mean_anomaly": 235.2975,
        "meta_ephemeris_type": 0,
        "meta_classification_type": "U",
        "meta_norad_cat_id": 34271,
        "meta_element_set_no": 999,
        "meta_rev_at_epoch": 88078,
        "meta_bstar": 0.0021873181,
        "meta_mean_motion_dot": 0.00013265,
        "meta_mean_motion_ddot": 0,
        "tle_line1": "1 34271U 93036LR  25336.11342980  .00013265  00000+0  21873-2 0  9994",
        "tle_line2": "2 34271  74.0211 219.9673 0019819 275.3903 235.2975 14.70374330880784"
      },
      "geometry": {
        "type": "Point",
        "coordinates": [
          -145.65096893413713,
          -13.991664203267872
        ]
      }
    },
    {
      "type": "Feature",
      "properties": {
        "norad_id": 34273,
        "name": "COSMOS 2251 DEB",
        "group": "cosmos-2251-debris",
        "lat": -20.018440762470114,
        "lon": 100.25335207458986,
        "alt_km": 697.7474629682865,
        "timestamp": "2025-12-02T21:34:01.664575+00:00",
        "meta_object_name": "COSMOS 2251 DEB",
        "meta_object_id": "1993-036LT",
        "meta_epoch": "2025-12-02T10:25:08.278176",
        "meta_mean_motion": 14.61051536,
        "meta_eccentricity": 0.001455,
        "meta_inclination": 74.0343,
        "meta_ra_of_asc_node": 107.128,
        "meta_arg_of_pericenter": 232.3431,
        "meta_mean_anomaly": 184.5456,
        "meta_ephemeris_type": 0,
        "meta_classification_type": "U",
        "meta_norad_cat_id": 34273,
        "meta_element_set_no": 999,
        "meta_rev_at_epoch": 88471,
        "meta_bstar": 0.0014245,
        "meta_mean_motion_dot": 6.983e-05,
        "meta_mean_motion_ddot": 0,
        "tle_line1": "1 34273U 93036LT  25336.43412359  .00006983  00000+0  14245-2 0  9993",
        "tle_line2": "2 34273  74.0343 107.1280 0014550 232.3431 184.5456 14.61051536884717"
      },
      "geometry": {
        "type": "Point",
        "coordinates": [
          100.25335207458986,
          -20.018440762470114
        ]
      }
    },
    {
      "type": "Feature",
      "properties": {
        "norad_id": 34274,
        "name": "COSMOS 2251 DEB",
        "group": "cosmos-2251-debris",
        "lat": -59.53262872630609,
        "lon": 58.33825186313672,
        "alt_km": 676.8458189281246,
        "timestamp": "2025-12-02T21:34:01.664587+00:00",
        "meta_object_name": "COSMOS 2251 DEB",
        "meta_object_id": "1993-036LU",
        "meta_epoch": "2025-12-02T08:59:57.814944",
        "meta_mean_motion": 14.64555424,
        "meta_eccentricity": 0.0022691,
        "meta_inclination": 74.0035,
        "meta_ra_of_asc_node": 88.5321,
        "meta_arg_of_pericenter": 239.0196,
        "meta_mean_anomaly": 177.2965,
        "meta_ephemeris_type": 0,
        "meta_classification_type": "U",
        "meta_norad_cat_id": 34274,
        "meta_element_set_no": 999,
        "meta_rev_at_epoch": 88524,
        "meta_bstar": 0.0016903,
        "meta_mean_motion_dot": 8.983e-05,
        "meta_mean_motion_ddot": 0,
        "tle_line1": "1 34274U 93036LU  25336.37497471  .00008983  00000+0  16903-2 0  9990",
        "tle_line2": "2 34274  74.0035  88.5321 0022691 239.0196 177.2965 14.64555424885242"
      },
      "geometry": {
        "type": "Point",
        "coordinates": [
          58.33825186313672,
          -59.53262872630609
        ]
      }
    },
    {
      "type": "Feature",
      "properties": {
        "norad_id": 34276,
        "name": "COSMOS 2251 DEB",
        "group": "cosmos-2251-debris",
        "lat": 38.66198484889744,
        "lon": -89.22274322201177,
        "alt_km": 705.246061989581,
        "timestamp": "2025-12-02T21:34:01.664597+00:00",
        "meta_object_name": "COSMOS 2251 DEB",
        "meta_object_id": "1993-036LW",
        "meta_epoch": "2025-12-02T07:51:41.486400",
        "meta_mean_motion": 14.57098546,
        "meta_eccentricity": 0.0022781,
        "meta_inclination": 74.0223,
        "meta_ra_of_asc_node": 105.114,
        "meta_arg_of_pericenter": 252.4003,
        "meta_mean_anomaly": 132.8869,
        "meta_ephemeris_type": 0,
        "meta_classification_type": "U",
        "meta_norad_cat_id": 34276,
        "meta_element_set_no": 999,
        "meta_rev_at_epoch": 88441,
        "meta_bstar": 0.0011597,
        "meta_mean_motion_dot": 5.218e-05,
        "meta_mean_motion_ddot": 0,
        "tle_line1": "1 34276U 93036LW  25336.32756350  .00005218  00000+0  11597-2 0  9993",
        "tle_line2": "2 34276  74.0223 105.1140 0022781 252.4003 132.8869 14.57098546884411"
      },
      "geometry": {
        "type": "Point",
        "coordinates": [
          -89.22274322201177,
          38.66198484889744
        ]
      }
    },
    {
      "type": "Feature",
      "properties": {
        "norad_id": 34297,
        "name": "COSMOS 2251 DEB",
        "group": "cosmos-2251-debris",
        "lat": 19.79882838102731,
        "lon": 116.39378491839297,
        "alt_km": 779.4045137320936,
        "timestamp": "2025-12-02T21:34:01.664607+00:00",
        "meta_object_name": "COSMOS 2251 DEB",
        "meta_object_id": "1993-036MT",
        "meta_epoch": "2025-12-02T09:41:51.787104",
        "meta_mean_motion": 14.36613645,
        "meta_eccentricity": 0.0016819,
        "meta_inclination": 74.0482,
        "meta_ra_of_asc_node": 303.2116,
        "meta_arg_of_pericenter": 14.2155,
        "meta_mean_anomaly": 108.2107,
        "meta_ephemeris_type": 0,
        "meta_classification_type": "U",
        "meta_norad_cat_id": 34297,
        "meta_element_set_no": 999,
        "meta_rev_at_epoch": 87916,
        "meta_bstar": 0.00020216,
        "meta_mean_motion_dot": 5.69e-06,
        "meta_mean_motion_ddot": 0,
        "tle_line1": "1 34297U 93036MT  25336.40407161  .00000569  00000+0  20216-3 0  9991",
        "tle_line2": "2 34297  74.0482 303.2116 0016819  14.2155 108.2107 14.36613645879160"
      },
      "geometry": {
        "type": "Point",
        "coordinates": [
          116.39378491839297,
          19.79882838102731
        ]
      }
    }
  ]
}